NORAD_CAT_ID,OBJECT_NAME,OBJECT_TYPE,EPOCH,MEAN_MOTION,ECCENTRICITY,INCLINATION,RA_OF_ASC_NODE,ARG_OF_PERICENTER,MEAN_ANOMALY,BSTAR,MEAN_MOTION_DOT,MEAN_MOTION_DDOT,TLE_LINE0,TLE_LINE1,TLE_LINE2,SEMIMAJOR_AXIS,PERIOD,APOGEE,PERIGEE,DECAYED
55405.0,STARLINK-5623,PAYLOAD,2024-08-09 21:04:22,14.98333278,0.0002906,70.0002,78.8445,263.4533,96.6295,3.4284e-05,3.16e-06,0.0,0 STARLINK-5623,1 55405U 23014Q   24222.87803362  .00000316  00000-0  34284-4 0  9993,2 55405  70.0002  78.8445 0002906 263.4533  96.6295 14.98333278 85658,6950.183,96.107,574.067,570.028,0.0
55405.0,STARLINK-5623,PAYLOAD,2024-08-10 14:41:50,14.98328139,0.0002792,70.0003,76.993,264.4541,95.6299,0.0001042,1.15e-05,0.0,0 STARLINK-5623,1 55405U 23014Q   24223.61239377  .00001150  00000-0  10420-3 0  9997,2 55405  70.0003  76.9930 0002792 264.4541  95.6299 14.98328139 85765,6950.199,96.107,574.004,570.123,0.0
55405.0,STARLINK-5623,PAYLOAD,2024-08-10 22:42:30,14.98328671,0.000298,70.0004,76.1512,271.4125,88.6692,0.00025275,2.924e-05,0.0,0 STARLINK-5623,1 55405U 23014Q   24223.94619108  .00002924  00000-0  25275-3 0  9991,2 55405  70.0004  76.1512 0002980 271.4125  88.6692 14.98328671 85815,6950.197,96.107,574.133,569.991,0.0
55405.0,STARLINK-5623,PAYLOAD,2024-08-11 00:18:38,14.98336065,0.0002695,70.0005,75.9829,262.6846,97.4006,0.00017311,1.973e-05,0.0,0 STARLINK-5623,1 55405U 23014Q   24224.01294753  .00001973  00000-0  17311-3 0  9990,2 55405  70.0005  75.9829 0002695 262.6846  97.4006 14.98336065 84888,6950.174,96.107,573.912,570.166,0.0
55405.0,STARLINK-5623,PAYLOAD,2024-08-11 21:08:23,14.98333732,0.000302,70.0009,73.7957,270.386,89.6953,0.00015802,1.793e-05,0.0,0 STARLINK-5623,1 55405U 23014Q   24224.88082948  .00001793  00000-0  15802-3 0  9999,2 55405  70.0009  73.7957 0003020 270.3860  89.6953 14.98333732 85013,6950.181,96.107,574.145,569.947,0.0
55405.0,STARLINK-5623,PAYLOAD,2024-08-11 22:44:31,14.98332194,0.0002855,70.0008,73.6278,264.3682,95.7151,0.00014224,1.605e-05,0.0,0 STARLINK-5623,1 55405U 23014Q   24224.94759057  .00001605  00000-0  14224-3 0  9997,2 55405  70.0008  73.6278 0002855 264.3682  95.7151 14.98332194 85960,6950.186,96.107,574.035,570.067,0.0
55405.0,STARLINK-5623,PAYLOAD,2024-08-12 06:45:12,14.98332098,0.0002801,70.001,72.786,272.3934,87.6904,5.3517e-05,5.46e-06,0.0,0 STARLINK-5623,1 55405U 23014Q   24225.28139147  .00000546  00000-0  53517-4 0  9999,2 55405  70.0010  72.7860 0002801 272.3934  87.6904 14.98332098 86016,6950.186,96.107,573.998,570.105,0.0
55405.0,STARLINK-5623,PAYLOAD,2024-08-12 22:46:31,14.9834337,0.0002739,70.0003,71.1015,273.1747,86.9098,0.00017838,2.037e-05,0.0,0 STARLINK-5623,1 55405U 23014Q   24225.94898134  .00002037  00000-0  17838-3 0  9992,2 55405  70.0003  71.1015 0002739 273.1747  86.9098 14.98343370 86116,6950.152,96.106,573.92,570.113,0.0
55405.0,STARLINK-5623,PAYLOAD,2024-08-13 13:11:46,14.98317991,0.0001881,70.0044,69.5861,284.384,75.711,-0.00018445,-2.292e-05,0.0,0 STARLINK-5623,1 55405U 23014Q   24226.54984173 -.00002292  00000-0 -18445-3 0  9998,2 55405  70.0044  69.5861 0001881 284.3840  75.7110 14.98317991 85262,6950.23,96.108,573.402,570.788,0.0
55405.0,STARLINK-5623,PAYLOAD,2024-08-13 19:36:20,14.98290048,0.0003042,70.0037,68.914,269.1293,90.9518,-0.00060978,-7.354e-05,0.0,0 STARLINK-5623,1 55405U 23014Q   24226.81689819 -.00007354  00000-0 -60978-3 0  9999,2 55405  70.0037  68.9140 0003042 269.1293  90.9518 14.98290048 85300,6950.316,96.11,574.296,570.067,0.0
55405.0,STARLINK-5623,PAYLOAD,2024-08-13 22:48:36,14.98288021,0.0003094,70.0037,68.5774,268.7542,91.3263,-0.00060689,-7.319e-05,0.0,0 STARLINK-5623,1 55405U 23014Q   24226.95042239 -.00007319  00000-0 -60689-3 0  9993,2 55405  70.0037  68.5774 0003094 268.7542  91.3263 14.98288021 86264,6950.323,96.11,574.338,570.037,0.0
55405.0,STARLINK-5623,PAYLOAD,2024-08-14 00:24:46,14.98268689,0.0002664,70.0043,68.401,271.2898,88.7956,8.5913e-05,9.31e-06,0.0,0 STARLINK-5623,1 55405U 23014Q   24227.01720006  .00000931  00000-0  85913-4 0  9995,2 55405  70.0043  68.4010 0002664 271.2898  88.7956 14.98268689 85332,6950.382,96.111,574.099,570.396,0.0
55405.0,STARLINK-5623,PAYLOAD,2024-08-14 06:49:15,14.98328112,0.0002949,70.002,67.7357,273.2943,86.7879,9.6068e-05,1.053e-05,0.0,0 STARLINK-5623,1 55405U 23014Q   24227.28420584  .00001053  00000-0  96068-4 0  9991,2 55405  70.0020  67.7357 0002949 273.2943  86.7879 14.98328112 85376,6950.199,96.107,574.113,570.014,0.0
55405.0,STARLINK-5623,PAYLOAD,2024-08-14 14:49:55,14.98331469,0.0002853,70.0002,66.8934,274.5262,85.5571,9.1536e-05,9.99e-06,0.0,0 STARLINK-5623,1 55405U 23014Q   24227.61800500  .00000999  00000-0  91536-4 0  9991,2 55405  70.0002  66.8934 0002853 274.5262  85.5571 14.98331469 86364,6950.188,96.107,574.036,570.07,0.0
55405.0,STARLINK-5623,PAYLOAD,2024-08-14 21:14:27,14.98337175,0.0003001,69.9995,66.2198,269.3491,90.7324,0.00012177,1.36e-05,0.0,0 STARLINK-5623,1 55405U 23014Q   24227.88504062  .00001360  00000-0  12177-3 0  9990,2 55405  69.9995  66.2198 0003001 269.3491  90.7324 14.98337175 86409,6950.171,96.107,574.121,569.95,0.0
55405.0,STARLINK-5623,PAYLOAD,2024-08-14 22:50:35,14.98335828,0.0002771,69.9996,66.0517,282.8277,77.2573,0.00014979,1.695e-05,0.0,0 STARLINK-5623,1 55405U 23014Q   24227.95180170  .00001695  00000-0  14979-3 0  9991,2 55405  69.9996  66.0517 0002771 282.8277  77.2573 14.98335828 85473,6950.175,96.107,573.966,570.114,0.0
55405.0,STARLINK-5623,PAYLOAD,2024-08-15 06:51:15,14.983331,0.0002884,69.9995,65.2097,272.3372,87.7457,0.00031165,3.628e-05,0.0,0 STARLINK-5623,1 55405U 23014Q   24228.28560001  .00003628  00000-0  31165-3 0  9997,2 55405  69.9995  65.2097 0002884 272.3372  87.7457 14.98333100 86469,6950.183,96.107,574.053,570.044,0.0
55405.0,STARLINK-5623,PAYLOAD,2024-08-15 22:52:36,14.98331033,0.0003231,69.9995,63.5263,270.815,89.2638,0.00065026,7.675e-05,0.0,0 STARLINK-5623,1 55405U 23014Q   24228.95319871  .00007675  00000-0  65026-3 0  9997,2 55405  69.9995  63.5263 0003231 270.8150  89.2638 14.98331033 86561,6950.19,96.107,574.3,569.809,0.0
55405.0,STARLINK-5623,PAYLOAD,2024-08-16 21:18:28,14.98346246,0.0003285,69.9996,61.1697,268.5634,91.5149,0.00010795,1.196e-05,0.0,0 STARLINK-5623,1 55405U 23014Q   24229.88783275  .00001196  00000-0  10795-3 0  9998,2 55405  69.9996  61.1697 0003285 268.5634  91.5149 14.98346246 86708,6950.143,96.106,574.291,569.725,0.0
55405.0,STARLINK-5623,PAYLOAD,2024-08-16 22:54:37,14.98340721,0.0002769,70.0011,61.001,270.2482,89.836,0.00018905,2.164e-05,0.0,0 STARLINK-5623,1 55405U 23014Q   24229.95459605  .00002164  00000-0  18905-3 0  9990,2 55405  70.0011  61.0010 0002769 270.2482  89.8360 14.98340721 85777,6950.16,96.106,573.949,570.1,0.0
55405.0,STARLINK-5623,PAYLOAD,2024-08-17 11:43:41,14.98345598,0.000255,70.0005,59.6546,279.8978,80.1893,-2.4371e-06,-1.22e-06,0.0,0 STARLINK-5623,1 55405U 23014Q   24230.48867183 -.00000122  00000-0 -24371-5 0  9994,2 55405  70.0005  59.6546 0002550 279.8978  80.1893 14.98345598 86795,6950.145,96.106,573.782,570.237,0.0
55405.0,STARLINK-5623,PAYLOAD,2024-08-17 22:56:37,14.98341828,0.0002995,70.0035,58.4743,271.5459,88.5357,-9.4912e-05,-1.226e-05,0.0,0 STARLINK-5623,1 55405U 23014Q   24230.95599099 -.00001226  00000-0 -94912-4 0  9997,2 55405  70.0035  58.4743 0002995 271.5459  88.5357 14.98341828 85923,6950.156,96.106,574.103,569.94,0.0
55405.0,STARLINK-5623,PAYLOAD,2024-08-18 11:45:40,14.98352961,0.0003971,69.9999,57.1271,259.4082,100.663,0.00019619,2.25e-05,0.0,0 STARLINK-5623,1 55405U 23014Q   24231.49005023  .00002250  00000-0  19619-3 0  9992,2 55405  69.9999  57.1271 0003971 259.4082 100.6630 14.98352961 86003,6950.122,96.106,574.747,569.227,0.0
55405.0,STARLINK-5623,PAYLOAD,2024-08-18 21:22:32,14.98277497,0.0002755,70.0001,56.1189,255.5737,104.5116,0.0047492,0.00056958,0.0,0 STARLINK-5623,1 55405U 23014Q   24231.89065227  .00056958  00000-0  47492-2 0  9991,2 55405  70.0001  56.1189 0002755 255.5737 104.5116 14.98277497 87003,6950.355,96.11,574.135,570.305,0.0
55405.0,STARLINK-5623,PAYLOAD,2024-08-18 22:58:35,14.9838159,0.0003499,70.0002,55.9504,266.1611,93.9148,0.00099453,0.0001181,0.0,0 STARLINK-5623,1 55405U 23014Q   24231.95735735  .00011810  00000-0  99453-3 0  9999,2 55405  70.0002  55.9504 0003499 266.1611  93.9148 14.98381590 86079,6950.033,96.104,574.33,569.467,0.0
55405.0,STARLINK-5623,PAYLOAD,2024-08-19 11:47:40,14.98359626,0.0002731,70.0015,54.6076,277.12,82.9649,0.00020216,2.322e-05,0.0,0 STARLINK-5623,1 55405U 23014Q   24232.49143965  .00002322  00000-0  20216-3 0  9996,2 55405  70.0015  54.6076 0002731 277.1200  82.9649 14.98359626 86155,6950.101,96.105,573.864,570.068,0.0
55405.0,STARLINK-5623,PAYLOAD,2024-08-20 13:25:49,14.98326517,0.0003073,70.002,51.9119,268.1913,91.8894,-0.00048742,-5.903e-05,0.0,0 STARLINK-5623,1 55405U 23014Q   24233.55959903 -.00005903  00000-0 -48742-3 0  9995,2 55405  70.0020  51.9119 0003073 268.1913  91.8894 14.98326517 86312,6950.204,96.107,574.204,569.933,0.0
55405.0,STARLINK-5623,PAYLOAD,2024-08-20 15:01:57,14.98324651,0.0002932,70.0021,51.7439,265.2908,94.7917,-0.00047769,-5.787e-05,0.0,0 STARLINK-5623,1 55405U 23014Q   24233.62635898 -.00005787  00000-0 -47769-3 0  9995,2 55405  70.0021  51.7439 0002932 265.2908  94.7917 14.98324651 87261,6950.209,96.107,574.112,570.037,0.0
55405.0,STARLINK-5623,PAYLOAD,2024-08-21 11:51:43,14.98313425,0.0003166,70.0014,49.5548,270.3928,89.6868,-1.6243e-05,-2.87e-06,0.0,0 STARLINK-5623,1 55405U 23014Q   24234.49425491 -.00000287  00000-0 -16243-4 0  9991,2 55405  70.0014  49.5548 0003166 270.3928  89.6868 14.98313425 86453,6950.244,96.108,574.31,569.909,0.0
55405.0,STARLINK-5623,PAYLOAD,2024-08-21 15:03:59,14.98317863,0.0002847,70.0011,49.2182,270.8397,89.2436,-0.00010553,-1.351e-05,0.0,0 STARLINK-5623,1 55405U 23014Q   24234.62777589 -.00001351  00000-0 -10553-3 0  9994,2 55405  70.0011  49.2182 0002847 270.8397  89.2436 14.98317863 87415,6950.23,96.108,574.074,570.117,0.0
